COSMOS 1743             
1 16719U 86034A   25302.70821401  .00031378  00000+0  57476-3 0  9993
2 16719  82.5378 210.2116 0009189  58.8746 301.3405 15.49117106159913
SL-14 R/B               
1 16792U 86046B   25302.66025449  .00000713  00000+0  79739-4 0  9996
2 16792  82.4845 203.9349 0021910 303.5974  56.3150 14.85418613106954
SL-14 R/B               
1 16882U 86055B   25302.92975172  .00000873  00000+0  98094-4 0  9994
2 16882  82.5199 249.5332 0020264  48.0779  15.7958 14.85455910 99957
AJISAI (EGS)            
1 16908U 86061A   25302.91490546 -.00000090  00000+0  51855-4 0  9992
2 16908  50.0063 135.4768 0011136 315.1519 201.6188 12.44514053451714
COSMOS 1812             
1 17295U 87003A   25302.84250080  .00072875  00000+0  67834-3 0  9990
2 17295  82.4915 339.2162 0003237 182.6384 177.4860 15.67112041123768
SL-14 R/B               
1 17567U 87024B   25302.74120363  .00000777  00000+0  86033-4 0  9999
2 17567  82.5305 215.7775 0017792 339.4546  20.5952 14.85956756 68682
COSMOS 1833             
1 17589U 87027A   25302.89803049 -.00000309  00000+0 -13948-3 0  9998
2 17589  70.9166 240.9360 0020493  34.1079 326.1354 14.13025957991838
SL-16 R/B               
1 17590U 87027B   25302.96895393 -.00000080  00000+0 -16100-4 0  9991
2 17590  71.0026 191.9493 0006799 305.6821  54.3669 14.17141996996866
SL-14 R/B               
1 17912U 87038B   25302.80360846  .00000859  00000+0  97315-4 0  9993
2 17912  82.5021  60.0723 0018133 234.7736 125.1783 14.85191312 59800
COSMOS 1844             
1 17973U 87041A   25302.71795520  .00000272  00000+0  16599-3 0  9998
2 17973  70.8976 310.4218 0032508 222.1486 137.7135 14.14507884985065
SL-14 R/B               
1 18153U 87055B   25302.93795885  .00000759  00000+0  84830-4 0  9996
2 18153  82.4962 112.2683 0022221  86.1784 274.1972 14.85449489 50527
COSMOS 1867             
1 18187U 87060A   25302.72912836  .00000024  00000+0  46784-4 0  9994
2 18187  65.0104 313.4500 0013773 266.7810  93.1698 14.31474970  1197
