CCSDS_OMM_VERS = 2.0
CREATION_DATE  = 
ORIGINATOR     = 

OBJECT_NAME    = COSMOS 1743
OBJECT_ID      = 1986-034A
CENTER_NAME    = EARTH
REF_FRAME      = TEME
TIME_SYSTEM    = UTC
MEAN_ELEMENT_THEORY = SGP/SGP4

EPOCH          = 2025-10-29T16:59:49.690464
MEAN_MOTION    = 15.49117106
ECCENTRICITY   = .00091896
INCLINATION    = 82.5378
RA_OF_ASC_NODE = 210.2116
ARG_OF_PERICENTER = 58.8746
MEAN_ANOMALY   = 301.3405

EPHEMERIS_TYPE = 0
CLASSIFICATION_TYPE = U
NORAD_CAT_ID   = 16719
ELEMENT_SET_NO = 999
REV_AT_EPOCH   = 15991
BSTAR          = .57476175E-3
MEAN_MOTION_DOT = .31378E-3
MEAN_MOTION_DDOT = 0

CCSDS_OMM_VERS = 2.0
CREATION_DATE  = 
ORIGINATOR     = 

OBJECT_NAME    = SL-14 R/B
OBJECT_ID      = 1986-046B
CENTER_NAME    = EARTH
REF_FRAME      = TEME
TIME_SYSTEM    = UTC
MEAN_ELEMENT_THEORY = SGP/SGP4

EPOCH          = 2025-10-29T15:50:45.987936
MEAN_MOTION    = 14.85418613
ECCENTRICITY   = .00219109
INCLINATION    = 82.4845
RA_OF_ASC_NODE = 203.9349
ARG_OF_PERICENTER = 303.5974
MEAN_ANOMALY   = 56.3150

EPHEMERIS_TYPE = 0
CLASSIFICATION_TYPE = U
NORAD_CAT_ID   = 16792
ELEMENT_SET_NO = 999
REV_AT_EPOCH   = 10695
BSTAR          = .79738798E-4
MEAN_MOTION_DOT = .713E-5
MEAN_MOTION_DDOT = 0

CCSDS_OMM_VERS = 2.0
CREATION_DATE  = 
ORIGINATOR     = 

OBJECT_NAME    = SL-14 R/B
OBJECT_ID      = 1986-055B
CENTER_NAME    = EARTH
REF_FRAME      = TEME
TIME_SYSTEM    = UTC
MEAN_ELEMENT_THEORY = SGP/SGP4

EPOCH          = 2025-10-29T22:18:50.548608
MEAN_MOTION    = 14.85455910
ECCENTRICITY   = .00202647
INCLINATION    = 82.5199
RA_OF_ASC_NODE = 249.5332
ARG_OF_PERICENTER = 48.0779
MEAN_ANOMALY   = 15.7958

EPHEMERIS_TYPE = 0
CLASSIFICATION_TYPE = U
NORAD_CAT_ID   = 16882
ELEMENT_SET_NO = 999
REV_AT_EPOCH   = 9995
BSTAR          = .98093913E-4
MEAN_MOTION_DOT = .873E-5
MEAN_MOTION_DDOT = 0

CCSDS_OMM_VERS = 2.0
CREATION_DATE  = 
ORIGINATOR     = 

OBJECT_NAME    = AJISAI (EGS)
OBJECT_ID      = 1986-061A
CENTER_NAME    = EARTH
REF_FRAME      = TEME
TIME_SYSTEM    = UTC
MEAN_ELEMENT_THEORY = SGP/SGP4

EPOCH          = 2025-10-29T21:57:27.831744
MEAN_MOTION    = 12.44514053
ECCENTRICITY   = .00111367
INCLINATION    = 50.0063
RA_OF_ASC_NODE = 135.4768
ARG_OF_PERICENTER = 315.1519
MEAN_ANOMALY   = 201.6188

EPHEMERIS_TYPE = 0
CLASSIFICATION_TYPE = U
NORAD_CAT_ID   = 16908
ELEMENT_SET_NO = 999
REV_AT_EPOCH   = 45171
BSTAR          = .51855388E-4
MEAN_MOTION_DOT = -.9E-6
MEAN_MOTION_DDOT = 0

CCSDS_OMM_VERS = 2.0
CREATION_DATE  = 
ORIGINATOR     = 

OBJECT_NAME    = COSMOS 1812
OBJECT_ID      = 1987-003A
CENTER_NAME    = EARTH
REF_FRAME      = TEME
TIME_SYSTEM    = UTC
MEAN_ELEMENT_THEORY = SGP/SGP4

EPOCH          = 2025-10-29T20:13:12.069120
MEAN_MOTION    = 15.67112041
ECCENTRICITY   = .00032373
INCLINATION    = 82.4915
RA_OF_ASC_NODE = 339.2162
ARG_OF_PERICENTER = 182.6384
MEAN_ANOMALY   = 177.4860

EPHEMERIS_TYPE = 0
CLASSIFICATION_TYPE = U
NORAD_CAT_ID   = 17295
ELEMENT_SET_NO = 999
REV_AT_EPOCH   = 12376
BSTAR          = .67834158E-3
MEAN_MOTION_DOT = .72875E-3
MEAN_MOTION_DDOT = 0

CCSDS_OMM_VERS = 2.0
CREATION_DATE  = 
ORIGINATOR     = 

OBJECT_NAME    = SL-14 R/B
OBJECT_ID      = 1987-024B
CENTER_NAME    = EARTH
REF_FRAME      = TEME
TIME_SYSTEM    = UTC
MEAN_ELEMENT_THEORY = SGP/SGP4

EPOCH          = 2025-10-29T17:47:19.993632
MEAN_MOTION    = 14.85956756
ECCENTRICITY   = .0017792
INCLINATION    = 82.5305
RA_OF_ASC_NODE = 215.7775
ARG_OF_PERICENTER = 339.4546
MEAN_ANOMALY   = 20.5952

EPHEMERIS_TYPE = 0
CLASSIFICATION_TYPE = U
NORAD_CAT_ID   = 17567
ELEMENT_SET_NO = 999
REV_AT_EPOCH   = 6868
BSTAR          = .86033483E-4
MEAN_MOTION_DOT = .777E-5
MEAN_MOTION_DDOT = 0

CCSDS_OMM_VERS = 2.0
CREATION_DATE  = 
ORIGINATOR     = 

OBJECT_NAME    = COSMOS 1833
OBJECT_ID      = 1987-027A
CENTER_NAME    = EARTH
REF_FRAME      = TEME
TIME_SYSTEM    = UTC
MEAN_ELEMENT_THEORY = SGP/SGP4

EPOCH          = 2025-10-29T21:33:09.834336
MEAN_MOTION    = 14.13025957
ECCENTRICITY   = .00204937
INCLINATION    = 70.9166
RA_OF_ASC_NODE = 240.9360
ARG_OF_PERICENTER = 34.1079
MEAN_ANOMALY   = 326.1354

EPHEMERIS_TYPE = 0
CLASSIFICATION_TYPE = U
NORAD_CAT_ID   = 17589
ELEMENT_SET_NO = 999
REV_AT_EPOCH   = 99183
BSTAR          = -.1394837E-3
MEAN_MOTION_DOT = -.309E-5
MEAN_MOTION_DDOT = 0

CCSDS_OMM_VERS = 2.0
CREATION_DATE  = 
ORIGINATOR     = 

OBJECT_NAME    = SL-16 R/B
OBJECT_ID      = 1987-027B
CENTER_NAME    = EARTH
REF_FRAME      = TEME
TIME_SYSTEM    = UTC
MEAN_ELEMENT_THEORY = SGP/SGP4

EPOCH          = 2025-10-29T23:15:17.619552
MEAN_MOTION    = 14.17141996
ECCENTRICITY   = .00067999
INCLINATION    = 71.0026
RA_OF_ASC_NODE = 191.9493
ARG_OF_PERICENTER = 305.6821
MEAN_ANOMALY   = 54.3669

EPHEMERIS_TYPE = 0
CLASSIFICATION_TYPE = U
NORAD_CAT_ID   = 17590
ELEMENT_SET_NO = 999
REV_AT_EPOCH   = 99686
BSTAR          = -.16099917E-4
MEAN_MOTION_DOT = -.8E-6
MEAN_MOTION_DDOT = 0

CCSDS_OMM_VERS = 2.0
CREATION_DATE  = 
ORIGINATOR     = 

OBJECT_NAME    = SL-14 R/B
OBJECT_ID      = 1987-038B
CENTER_NAME    = EARTH
REF_FRAME      = TEME
TIME_SYSTEM    = UTC
MEAN_ELEMENT_THEORY = SGP/SGP4

EPOCH          = 2025-10-29T19:17:11.770944
MEAN_MOTION    = 14.85191312
ECCENTRICITY   = .00181332
INCLINATION    = 82.5021
RA_OF_ASC_NODE = 60.0723
ARG_OF_PERICENTER = 234.7736
MEAN_ANOMALY   = 125.1783

EPHEMERIS_TYPE = 0
CLASSIFICATION_TYPE = U
NORAD_CAT_ID   = 17912
ELEMENT_SET_NO = 999
REV_AT_EPOCH   = 5980
BSTAR          = .97315372E-4
MEAN_MOTION_DOT = .859E-5
MEAN_MOTION_DDOT = 0

CCSDS_OMM_VERS = 2.0
CREATION_DATE  = 
ORIGINATOR     = 

OBJECT_NAME    = COSMOS 1844
OBJECT_ID      = 1987-041A
CENTER_NAME    = EARTH
REF_FRAME      = TEME
TIME_SYSTEM    = UTC
MEAN_ELEMENT_THEORY = SGP/SGP4

EPOCH          = 2025-10-29T17:13:51.329280
MEAN_MOTION    = 14.14507884
ECCENTRICITY   = .00325083
INCLINATION    = 70.8976
RA_OF_ASC_NODE = 310.4218
ARG_OF_PERICENTER = 222.1486
MEAN_ANOMALY   = 137.7135

EPHEMERIS_TYPE = 0
CLASSIFICATION_TYPE = U
NORAD_CAT_ID   = 17973
ELEMENT_SET_NO = 999
REV_AT_EPOCH   = 98506
BSTAR          = .16599049E-3
MEAN_MOTION_DOT = .272E-5
MEAN_MOTION_DDOT = 0

CCSDS_OMM_VERS = 2.0
CREATION_DATE  = 
ORIGINATOR     = 

OBJECT_NAME    = SL-14 R/B
OBJECT_ID      = 1987-055B
CENTER_NAME    = EARTH
REF_FRAME      = TEME
TIME_SYSTEM    = UTC
MEAN_ELEMENT_THEORY = SGP/SGP4

EPOCH          = 2025-10-29T22:30:39.644640
MEAN_MOTION    = 14.85449489
ECCENTRICITY   = .00222215
INCLINATION    = 82.4962
RA_OF_ASC_NODE = 112.2683
ARG_OF_PERICENTER = 86.1784
MEAN_ANOMALY   = 274.1972

EPHEMERIS_TYPE = 0
CLASSIFICATION_TYPE = U
NORAD_CAT_ID   = 18153
ELEMENT_SET_NO = 999
REV_AT_EPOCH   = 5052
BSTAR          = .84829556E-4
MEAN_MOTION_DOT = .759E-5
MEAN_MOTION_DDOT = 0

CCSDS_OMM_VERS = 2.0
CREATION_DATE  = 
ORIGINATOR     = 

OBJECT_NAME    = COSMOS 1867
OBJECT_ID      = 1987-060A
CENTER_NAME    = EARTH
REF_FRAME      = TEME
TIME_SYSTEM    = UTC
MEAN_ELEMENT_THEORY = SGP/SGP4

EPOCH          = 2025-10-29T17:29:56.690304
MEAN_MOTION    = 14.31474970
ECCENTRICITY   = .00137739
INCLINATION    = 65.0104
RA_OF_ASC_NODE = 313.4500
ARG_OF_PERICENTER = 266.7810
MEAN_ANOMALY   = 93.1698

EPHEMERIS_TYPE = 0
CLASSIFICATION_TYPE = U
NORAD_CAT_ID   = 18187
ELEMENT_SET_NO = 999
REV_AT_EPOCH   = 119
BSTAR          = .46784434E-4
MEAN_MOTION_DOT = .24E-6
MEAN_MOTION_DDOT = 0

